ONEWEB-0269             
1 48987U 21060W   24111.76160285  .00000054  00000+0  10817-3 0  9997
2 48987  87.9157  25.5304 0001911  76.8023 283.3321 13.16594371136015
ONEWEB-0270             
1 48988U 21060X   24112.15900188  .00000069  00000+0  14660-3 0  9992
2 48988  87.9153  25.4365 0001609  99.3185 260.8128 13.16593396137417
ONEWEB-0271             
1 48989U 21060Y   24111.84234718  .00000179  00000+0  43542-3 0  9990
2 48989  87.9154  25.4754 0001508  88.4251 271.7053 13.16593894136063
ONEWEB-0272             
1 48990U 21060Z   24111.78851624 -.00000546  00000+0 -14609-2 0  9997
2 48990  87.9155  25.5141 0001866  82.4578 277.6765 13.16597578136002
ONEWEB-0273             
1 48991U 21060AA  24111.81068381  .00000059  00000+0  12061-3 0  9990
2 48991  87.9152  25.4972 0001752  86.0201 274.1130 13.16595892135989
ONEWEB-0274             
1 48992U 21060AB  24111.76001618  .00000075  00000+0  16175-3 0  9993
2 48992  87.9161  25.5169 0001471  61.8091 298.3188 13.16594282136013
ONEWEB-0275             
1 48993U 21060AC  24111.82492951  .00000091  00000+0  20352-3 0  9995
2 48993  87.9152  25.4907 0001718  84.3874 275.7453 13.16594129135952
ONEWEB-0276             
1 48994U 21060AD  24111.78218201 -.00000057  00000+0 -18342-3 0  9995
2 48994  87.9155  25.4946 0001698  89.9641 270.1684 13.16594409135966
ONEWEB-0277             
1 48995U 21060AE  24111.79484297 -.00000088  00000+0 -26261-3 0  9990
2 48995  87.9152  25.5309 0001400  92.3919 267.7372 13.16593927135954
ONEWEB-0278             
1 48996U 21060AF  24111.78535023 -.00000087  00000+0 -25993-3 0  9994
2 48996  87.9157  25.4912 0002192  85.3978 274.7403 13.16595252136086
ONEWEB-0279             
1 48997U 21060AG  24111.79326767 -.00000074  00000+0 -22718-3 0  9997
2 48997  87.9151  25.4879 0001417  85.1057 275.0236 13.16594988136014
ONEWEB-0280             
1 48998U 21060AH  24111.80751189  .00001292  00000+0  33452-2 0  9997
2 48998  87.9155  25.4859 0002135  86.7745 273.3630 13.16589260135954
ONEWEB-0281             
1 48999U 21060AJ  24111.81386070  .00000059  00000+0  12154-3 0  9999
2 48999  87.9153  25.4865 0001798  72.5889 287.5438 13.16595984136028
ONEWEB-0282             
1 49000U 21060AK  24111.76793387  .00000028  00000+0  39901-4 0  9996
2 49000  87.9153  25.5123 0001717  91.7261 268.4066 13.16594179135993
ONEWEB-0283             
1 49001U 21060AL  24112.13683694  .00000054  00000+0  10819-3 0  9993
2 49001  87.9152  25.4459 0001543  81.9866 278.1439 13.16592818137377
ONEWEB-0284             
1 49002U 21060AM  24111.82651518  .00000097  00000+0  21897-3 0  9994
2 49002  87.9147  25.4949 0001822  87.3991 272.7348 13.16594606135997
ONEWEB-0285             
1 49075U 21075A   24111.60753485  .00000008  00000+0 -14315-4 0  9993
2 49075  87.8955 147.4539 0002446 108.2855 251.8539 13.12442643131904
ONEWEB-0286             
1 49076U 21075B   24111.65504055 -.00001422  00000+0 -39882-2 0  9992
2 49076  87.8956 147.4484 0002122  89.0164 271.1208 13.12448666131263
ONEWEB-0287             
1 49077U 21075C   24111.63315728 -.00000171  00000+0 -47471-3 0  9992
2 49077  87.9209 162.5873 0002485  95.1094 265.0321 13.17649038129916
ONEWEB-0288             
1 49078U 21075D   24111.63916423  .00000357  00000+0  95762-3 0  9992
2 49078  87.8952 147.4552 0002208  95.6121 264.5260 13.12440664131880
ONEWEB-0289             
1 49079U 21075E   24111.66164240  .00000103  00000+0  23147-3 0  9995
2 49079  87.9210 162.6083 0001910 101.4150 258.7196 13.17650481130498
ONEWEB-0290             
1 49080U 21075F   24112.17580412 -.00000007  00000+0 -50987-4 0  9995
2 49080  87.9207 162.4686 0002553 103.3170 256.8247 13.17649190130952
ONEWEB-0291             
1 49081U 21075G   24111.70435675  .00000031  00000+0  47208-4 0  9991
2 49081  87.9201 162.5856 0002414  97.8870 262.2536 13.17651145129905
ONEWEB-0293             
1 49082U 21075H   24111.65374553  .00000036  00000+0  58817-4 0  9996
2 49082  87.9207 162.6067 0002375 101.7334 258.4064 13.17649089129922
ONEWEB-0294             
1 49083U 21075J   24111.64552486  .00000098  00000+0  23616-3 0  9995
2 49083  87.8952 147.4528 0002648 101.6737 258.4689 13.12441978131277
ONEWEB-0295             
1 49084U 21075K   24111.65531027  .00000087  00000+0  19195-3 0  9990
2 49084  87.9208 162.5830 0002544  92.6239 267.5184 13.17651176129881
ONEWEB-0296             
1 49085U 21075L   24111.62805216  .00000513  00000+0  13917-2 0  9991
2 49085  87.8953 147.4570 0002783  91.4755 268.6692 13.12441843131271
ONEWEB-0297             
1 49086U 21075M   24111.65981378 -.00000334  00000+0 -96390-3 0  9999
2 49086  87.8962 147.4531 0001964  92.7049 267.4304 13.12442593131886
ONEWEB-0298             
1 49087U 21075N   24111.65848437  .00000100  00000+0  22537-3 0  9999
2 49087  87.9208 162.6013 0002265  94.8276 265.3114 13.17650948129912
ONEWEB-0299             
1 49088U 21075P   24111.66005051  .00000074  00000+0  15798-3 0  9999
2 49088  87.9203 162.5730 0002322  92.1096 268.0302 13.17651225129893
ONEWEB-0300             
1 49089U 21075Q   24111.65028670 -.00000075  00000+0 -24492-3 0  9995
2 49089  87.8952 147.4498 0001873  87.0272 273.1071 13.12442135131904
ONEWEB-0301             
1 49090U 21075R   24112.16806825  .00000553  00000+0  15006-2 0  9999
2 49090  87.8952 147.3503 0001740  94.9416 265.1911 13.12442649132323
ONEWEB-0302             
1 49091U 21075S   24111.62169813  .00000443  00000+0  11969-2 0  9991
2 49091  87.8953 147.4566 0002332  97.4592 262.6802 13.12442106131245
ONEWEB-0304             
1 49092U 21075T   24111.63475522  .00000047  00000+0  87450-4 0  9990
2 49092  87.9207 162.5914 0002435  93.2792 266.8618 13.17647871129861
ONEWEB-0305             
1 49093U 21075U   24111.62683171 -.00000232  00000+0 -62957-3 0  9993
2 49093  87.9204 162.5814 0002491  86.0550 274.0866 13.17648628129892
ONEWEB-0308             
1 49094U 21075V   24111.61534366  .00000307  00000+0  81818-3 0  9992
2 49094  87.8953 147.4581 0001960  95.2858 264.8494 13.12442614131258
ONEWEB-0309             
1 49095U 21075W   24111.63157511 -.00000182  00000+0 -50164-3 0  9991
2 49095  87.9207 162.5831 0002455 107.0288 253.1113 13.17649748129862
ONEWEB-0310             
1 49096U 21075X   24112.08706110  .00000461  00000+0  12454-2 0  9994
2 49096  87.8962 147.3669 0002207 101.4959 258.6417 13.12442059132949
ONEWEB-0311             
1 49097U 21075Y   24112.16945681 -.00000264  00000+0 -71297-3 0  9996
2 49097  87.9208 162.4776 0002408  85.1352 275.0054 13.17649155130982
ONEWEB-0312             
1 49098U 21075Z   24111.65215691  .00000077  00000+0  16557-3 0  9999
2 49098  87.9207 162.6121 0002605  95.6150 264.5278 13.17647519129890
ONEWEB-0313             
1 49099U 21075AA  24111.70592882  .00000654  00000+0  16504-2 0  9998
2 49099  87.9209 162.6038 0002115  99.9659 260.1711 13.17655813129897
ONEWEB-0314             
1 49100U 21075AB  24111.69960458 -.00000333  00000+0 -89054-3 0  9994
2 49100  87.9204 162.5649 0002704  92.5577 267.5864 13.17649339129867
ONEWEB-0315             
1 49101U 21075AC  24111.60422528  .00000042  00000+0  82296-4 0  9994
2 49101  87.8952 147.4547 0001927  92.8953 267.2396 13.12443008131863
ONEWEB-0316             
1 49102U 21075AD  24111.56142943  .00000093  00000+0  20323-3 0  9998
2 49102  87.9133 132.2495 0002142  86.4041 273.7336 13.18687576133401
ONEWEB-0317             
1 49103U 21075AE  24111.59786512 -.00000163  00000+0 -48982-3 0  9999
2 49103  87.8954 147.4643 0002101  99.0310 261.1056 13.12442069131889
ONEWEB-0318             
1 49104U 21075AF  24111.55826190  .00000131  00000+0  30054-3 0  9997
2 49104  87.9129 132.2452 0002134  82.7213 277.4162 13.18687323133365
ONEWEB-0319             
1 49105U 21075AG  24112.17105140  .00000053  00000+0  10300-3 0  9997
2 49105  87.9206 162.5028 0002480  83.1967 276.9447 13.17650381130957
ONEWEB-0323             
1 49106U 21075AH  24111.66458116 -.00000336  00000+0 -96943-3 0  9998
2 49106  87.8954 147.4387 0002182  87.7023 272.4355 13.12444246131258
ONEWEB-0329             
1 49107U 21075AJ  24112.17894798 -.00000321  00000+0 -85870-3 0  9997
2 49107  87.9207 162.5049 0002377  95.1364 265.0039 13.17649329130936
ONEWEB-0330             
1 49108U 21075AK  24112.18052986 -.00000244  00000+0 -66224-3 0  9990
2 49108  87.9207 162.5048 0002401  97.5739 262.5666 13.17648814130976
ONEWEB-0292             
1 49186U 21083A   24111.56414027  .00000005  00000+0 -22393-4 0  9998
2 49186  87.8894 117.0430 0001973  85.3904 274.7450 13.13468382127535
ONEWEB-0303             
1 49187U 21083B   24111.55509156  .00000107  00000+0  23966-3 0  9994
2 49187  87.9132 132.2452 0002121  86.3183 273.8192 13.18688455126173
ONEWEB-0306             
1 49188U 21083C   24111.54561924  .00000127  00000+0  28900-3 0  9990
2 49188  87.9130 132.2347 0002021  95.5722 264.5640 13.18688586127491
ONEWEB-0307             
1 49189U 21083D   24111.55859039  .00000168  00000+0  42473-3 0  9995
2 49189  87.8896 117.0433 0002231  99.9793 260.1588 13.13468582127531
ONEWEB-0320             
1 49190U 21083E   24111.55195043  .00000099  00000+0  21849-3 0  9992
2 49190  87.9132 132.2567 0002045  92.6714 267.4652 13.18685892127453
ONEWEB-0321             
1 49191U 21083F   24111.86062009  .00000084  00000+0  17404-3 0  9998
2 49191  87.9179  71.0972 0001833  90.3328 269.8016 13.20772291132904
ONEWEB-0322             
1 49192U 21083G   24111.55462458  .00000305  00000+0  80093-3 0  9997
2 49192  87.8896 117.0330 0001932 104.5477 255.5866 13.13468754127527
ONEWEB-0324             
1 49193U 21083H   24111.53771908  .00000131  00000+0  29866-3 0  9997
2 49193  87.9129 132.2419 0002381  92.8506 267.2899 13.18687421126193
ONEWEB-0325             
1 49194U 21083J   24112.07362122 -.00002307  00000+0 -58864-2 0  9990
2 49194  87.9154 132.1533 0002085  94.1265 266.0106 13.18666188127552
